NORAD_CAT_ID,OBJECT_NAME,OBJECT_TYPE,EPOCH,MEAN_MOTION,ECCENTRICITY,INCLINATION,RA_OF_ASC_NODE,ARG_OF_PERICENTER,MEAN_ANOMALY,BSTAR,MEAN_MOTION_DOT,MEAN_MOTION_DDOT,TLE_LINE0,TLE_LINE1,TLE_LINE2,SEMIMAJOR_AXIS,PERIOD,APOGEE,PERIGEE,DECAYED
51725.0,STARLINK-3522,PAYLOAD,2023-10-08 20:52:28,15.08837393,9.96e-05,53.2174,332.2536,91.3203,268.7903,-0.00010116,-1.897e-05,0.0,0 STARLINK-3522,1 51725U 22016M   23281.86977106 -.00001897  00000-0 -10116-3 0  9990,2 51725  53.2174 332.2536 0000996  91.3203 268.7903 15.08837393 90146,6917.888,95.438,540.442,539.064,0.0
51725.0,STARLINK-3522,PAYLOAD,2023-10-09 09:35:33,15.08848009,0.0001239,53.2181,329.874,89.0004,271.113,0.00088152,0.00013772,0.0,0 STARLINK-3522,1 51725U 22016M   23282.39968984  .00013772  00000-0  88152-3 0  9991,2 51725  53.2181 329.8740 0001239  89.0004 271.1130 15.08848009 91357,6917.856,95.437,540.578,538.864,0.0
51725.0,STARLINK-3522,PAYLOAD,2023-10-09 12:46:19,15.08858835,0.0001611,53.2177,329.2775,92.9986,267.119,0.0010662,0.0001673,0.0,0 STARLINK-3522,1 51725U 22016M   23282.53216766  .00016730  00000-0  10662-2 0  9998,2 51725  53.2177 329.2775 0001611  92.9986 267.1190 15.08858835 90246,6917.823,95.436,540.802,538.573,0.0
51725.0,STARLINK-3522,PAYLOAD,2023-10-10 09:26:20,15.08860145,0.0001757,53.2177,325.4129,100.5827,259.5364,0.00087747,0.00013712,0.0,0 STARLINK-3522,1 51725U 22016M   23283.39328746  .00013712  00000-0  87747-3 0  9991,2 51725  53.2177 325.4129 0001757 100.5827 259.5364 15.08860145 91503,6917.819,95.436,540.899,538.468,0.0
51725.0,STARLINK-3522,PAYLOAD,2023-10-10 14:12:29,15.08863045,0.0001781,53.2181,324.5206,98.6642,261.4551,0.001275,0.00020075,0.0,0 STARLINK-3522,1 51725U 22016M   23283.59200590  .00020075  00000-0  12750-2 0  9990,2 51725  53.2181 324.5206 0001781  98.6642 261.4551 15.08863045 90403,6917.81,95.436,540.907,538.443,0.0
51725.0,STARLINK-3522,PAYLOAD,2023-10-11 02:55:35,15.08830552,0.0002078,53.217,322.1424,97.4097,262.7132,0.00042273,6.444e-05,0.0,0 STARLINK-3522,1 51725U 22016M   23284.12193394  .00006444  00000-0  42273-3 0  9991,2 51725  53.2170 322.1424 0002078  97.4097 262.7132 15.08830552 91618,6917.909,95.438,541.212,538.337,0.0
51725.0,STARLINK-3522,PAYLOAD,2023-10-11 09:17:08,15.0882992,0.0001866,53.2184,320.9565,82.0881,278.0323,0.0012181,0.00019146,0.0,0 STARLINK-3522,1 51725U 22016M   23284.38689964  .00019146  00000-0  12181-2 0  9999,2 51725  53.2184 320.9565 0001866  82.0881 278.0323 15.08829920 90528,6917.911,95.438,541.067,538.485,0.0
51725.0,STARLINK-3522,PAYLOAD,2023-10-12 09:07:55,15.08854206,0.0001909,53.218,316.4957,85.0986,275.0224,0.00095292,0.00014916,0.0,0 STARLINK-3522,1 51725U 22016M   23285.38049972  .00014916  00000-0  95292-3 0  9994,2 51725  53.2180 316.4957 0001909  85.0986 275.0224 15.08854206 90674,6917.837,95.437,541.023,538.381,0.0
51725.0,STARLINK-3522,PAYLOAD,2023-10-12 18:40:13,15.0885199,0.0001847,53.2174,314.7091,84.0437,276.0766,0.0006253,9.681e-05,0.0,0 STARLINK-3522,1 51725U 22016M   23285.77793819  .00009681  00000-0  62530-3 0  9995,2 51725  53.2174 314.7091 0001847  84.0437 276.0766 15.08851990 91869,6917.844,95.437,540.986,538.431,0.0
51725.0,STARLINK-3522,PAYLOAD,2023-10-13 02:37:09,15.08845956,0.000197,53.2174,313.2265,92.8347,267.287,0.00014669,2.048e-05,0.0,0 STARLINK-3522,1 51725U 22016M   23286.10913906  .00002048  00000-0  14669-3 0  9994,2 51725  53.2174 313.2265 0001970  92.8347 267.2870 15.08845956 91919,6917.862,95.437,541.09,538.364,0.0
51725.0,STARLINK-3522,PAYLOAD,2023-10-13 08:58:42,15.08849574,0.0001901,53.2175,312.0362,93.8991,266.2218,0.00030149,4.515e-05,0.0,0 STARLINK-3522,1 51725U 22016M   23286.37409731  .00004515  00000-0  30149-3 0  9991,2 51725  53.2175 312.0362 0001901  93.8991 266.2218 15.08849574 90829,6917.851,95.437,541.031,538.401,0.0
51725.0,STARLINK-3522,PAYLOAD,2023-10-13 18:31:00,15.08850514,0.0001839,53.2168,310.2515,92.4027,267.7176,0.00026506,3.934e-05,0.0,0 STARLINK-3522,1 51725U 22016M   23286.77153556  .00003934  00000-0  26506-3 0  9992,2 51725  53.2168 310.2515 0001839  92.4027 267.7176 15.08850514 90887,6917.848,95.437,540.985,538.441,0.0
51725.0,STARLINK-3522,PAYLOAD,2023-10-14 08:49:28,15.08845593,0.0001694,53.2185,307.5767,86.409,273.7096,0.00011381,1.524e-05,0.0,0 STARLINK-3522,1 51725U 22016M   23287.36769614  .00001524  00000-0  11381-3 0  9994,2 51725  53.2185 307.5767 0001694  86.4090 273.7096 15.08845593 92102,6917.863,95.437,540.9,538.556,0.0
51725.0,STARLINK-3522,PAYLOAD,2023-10-14 18:21:47,15.08839298,0.0001837,53.2176,305.7897,89.992,270.1282,-6.5284e-05,-1.327e-05,0.0,0 STARLINK-3522,1 51725U 22016M   23287.76513856 -.00001327  00000-0 -65284-4 0  9998,2 51725  53.2176 305.7897 0001837  89.9920 270.1282 15.08839298 91039,6917.883,95.438,541.018,538.477,0.0
51725.0,STARLINK-3522,PAYLOAD,2023-10-15 00:43:20,15.08833406,0.0001909,53.2182,304.6015,94.3103,265.8108,1.9579e-05,2.3e-07,0.0,0 STARLINK-3522,1 51725U 22016M   23288.03010322  .00000023  00000-0  19579-4 0  9995,2 51725  53.2182 304.6015 0001909  94.3103 265.8108 15.08833406 92202,6917.901,95.438,541.086,538.445,0.0
51725.0,STARLINK-3522,PAYLOAD,2023-10-15 08:40:17,15.08828237,0.0001876,53.2173,303.1138,86.1217,273.999,-0.00010175,-1.907e-05,0.0,0 STARLINK-3522,1 51725U 22016M   23288.36130823 -.00001907  00000-0 -10175-3 0  9996,2 51725  53.2173 303.1138 0001876  86.1217 273.9990 15.08828237 91125,6917.916,95.438,541.079,538.484,0.0
51725.0,STARLINK-3522,PAYLOAD,2023-10-15 18:12:35,15.08837575,0.0001928,53.2186,301.3294,89.4022,270.7191,2.9259e-05,1.77e-06,0.0,0 STARLINK-3522,1 51725U 22016M   23288.75874893  .00000177  00000-0  29259-4 0  9991,2 51725  53.2186 301.3294 0001928  89.4022 270.7191 15.08837575 91189,6917.888,95.438,541.087,538.419,0.0
51725.0,STARLINK-3522,PAYLOAD,2023-10-16 08:31:03,15.08848821,0.0001704,53.217,298.6529,88.0449,272.0738,0.00023692,3.485e-05,0.0,0 STARLINK-3522,1 51725U 22016M   23289.35490102  .00003485  00000-0  23692-3 0  9994,2 51725  53.2170 298.6529 0001704  88.0449 272.0738 15.08848821 92405,6917.853,95.437,540.897,538.54,0.0
51725.0,STARLINK-3522,PAYLOAD,2023-10-17 06:46:27,15.08847324,0.0001652,53.2161,294.4881,97.6709,262.447,0.0002749,4.091e-05,0.0,0 STARLINK-3522,1 51725U 22016M   23290.28226246  .00004091  00000-0  27490-3 0  9998,2 51725  53.2161 294.4881 0001652  97.6709 262.4470 15.08847324 92545,6917.858,95.437,540.866,538.58,0.0
51725.0,STARLINK-3522,PAYLOAD,2023-10-17 17:54:09,15.08841454,0.0001724,53.2179,292.4064,96.9838,263.1351,0.00011905,1.607e-05,0.0,0 STARLINK-3522,1 51725U 22016M   23290.74594615  .00001607  00000-0  11905-3 0  9991,2 51725  53.2179 292.4064 0001724  96.9838 263.1351 15.08841454 91486,6917.876,95.437,540.934,538.548,0.0
51725.0,STARLINK-3522,PAYLOAD,2023-10-18 09:48:01,15.08843749,0.0001845,53.2178,289.4316,102.5862,257.5337,4.0195e-05,3.52e-06,0.0,0 STARLINK-3522,1 51725U 22016M   23291.40834563  .00000352  00000-0  40195-4 0  9994,2 51725  53.2178 289.4316 0001845 102.5862 257.5337 15.08843749 92713,6917.869,95.437,541.01,538.458,0.0
51725.0,STARLINK-3522,PAYLOAD,2023-10-19 06:28:01,15.08852909,0.0001726,53.2169,285.5666,96.8059,263.313,0.00037848,5.743e-05,0.0,0 STARLINK-3522,1 51725U 22016M   23292.26946291  .00005743  00000-0  37848-3 0  9990,2 51725  53.2169 285.5666 0001726  96.8059 263.3130 15.08852909 91712,6917.841,95.437,540.9,538.512,0.0
51725.0,STARLINK-3522,PAYLOAD,2023-10-20 04:43:25,15.08849467,0.0001744,53.2174,281.4033,105.8336,254.2849,0.00028492,4.251e-05,0.0,0 STARLINK-3522,1 51725U 22016M   23293.19682305  .00004251  00000-0  28492-3 0  9994,2 51725  53.2174 281.4033 0001744 105.8336 254.2849 15.08849467 92981,6917.851,95.437,540.923,538.51,0.0
51725.0,STARLINK-3522,PAYLOAD,2023-10-20 06:18:48,15.08850822,0.0001786,53.2174,281.106,105.2531,254.8659,0.00029844,4.466e-05,0.0,0 STARLINK-3522,1 51725U 22016M   23293.26306234  .00004466  00000-0  29844-3 0  9996,2 51725  53.2174 281.1060 0001786 105.2531 254.8659 15.08850822 91863,6917.847,95.437,540.948,538.477,0.0
51725.0,STARLINK-3522,PAYLOAD,2023-10-20 22:12:40,15.08839624,0.0001943,53.2184,278.1383,101.2135,258.9075,1.2932e-05,-8.2e-07,0.0,0 STARLINK-3522,1 51725U 22016M   23293.92546609 -.00000082  00000-0  12932-4 0  9993,2 51725  53.2184 278.1383 0001943 101.2135 258.9075 15.08839624 91964,6917.882,95.438,541.091,538.402,0.0
51725.0,STARLINK-3522,PAYLOAD,2023-10-21 02:58:49,15.08834947,0.0001818,53.217,277.2392,108.4746,251.6443,-9.1711e-05,-1.747e-05,0.0,0 STARLINK-3522,1 51725U 22016M   23294.12418809 -.00001747  00000-0 -91711-4 0  9998,2 51725  53.2170 277.2392 0001818 108.4746 251.6443 15.08834947 93129,6917.896,95.438,541.019,538.503,0.0
51725.0,STARLINK-3522,PAYLOAD,2023-10-21 07:44:59,15.08836972,0.0001524,53.2174,276.3493,96.0171,264.0995,-2.5176e-05,-6.89e-06,0.0,0 STARLINK-3522,1 51725U 22016M   23294.32291012 -.00000689  00000-0 -25176-4 0  9991,2 51725  53.2174 276.3493 0001524  96.0171 264.0995 15.08836972 92021,6917.89,95.438,540.809,538.7,0.0
51725.0,STARLINK-3522,PAYLOAD,2023-10-21 15:41:54,15.0883941,0.0001504,53.2178,274.8629,96.4726,263.6437,9.4255e-05,1.212e-05,0.0,0 STARLINK-3522,1 51725U 22016M   23294.65410865  .00001212  00000-0  94255-4 0  9991,2 51725  53.2178 274.8629 0001504  96.4726 263.6437 15.08839410 92078,6917.882,95.438,540.788,538.707,0.0
51725.0,STARLINK-3522,PAYLOAD,2023-10-22 04:24:59,15.08849365,0.0001432,53.2175,272.4835,99.3025,260.8129,0.00030464,4.565e-05,0.0,0 STARLINK-3522,1 51725U 22016M   23295.18402569  .00004565  00000-0  30464-3 0  9997,2 51725  53.2175 272.4835 0001432  99.3025 260.8129 15.08849365 93283,6917.852,95.437,540.707,538.726,0.0
51725.0,STARLINK-3522,PAYLOAD,2023-10-22 07:35:46,15.0885697,0.0001428,53.217,271.8895,94.4056,265.7099,0.00068608,0.00010653,0.0,0 STARLINK-3522,1 51725U 22016M   23295.31650511  .00010653  00000-0  68608-3 0  9990,2 51725  53.2170 271.8895 0001428  94.4056 265.7099 15.08856970 92179,6917.829,95.436,540.681,538.706,0.0
